{
  "type": "FeatureCollection",
  "features": [
    {
      "type": "Feature",
      "properties": {
        "norad_id": 66983,
        "name": "STARLINK-36145",
        "group": "last-30-days",
        "lat": 40.633840527351836,
        "lon": -115.99741178837832,
        "alt_km": 307.6351097214283,
        "timestamp": "2025-12-18T14:52:06.783670+00:00",
        "meta_object_name": "STARLINK-36145",
        "meta_object_id": "2025-288AA",
        "meta_epoch": "2025-12-18T06:00:02.999808",
        "meta_mean_motion": 15.87472647,
        "meta_eccentricity": 0.00015594,
        "meta_inclination": 43.0015,
        "meta_ra_of_asc_node": 133.3364,
        "meta_arg_of_pericenter": 270.9315,
        "meta_mean_anomaly": 242.8879,
        "meta_ephemeris_type": 0,
        "meta_classification_type": "U",
        "meta_norad_cat_id": 66983,
        "meta_element_set_no": 999,
        "meta_rev_at_epoch": 271,
        "meta_bstar": -0.0062677627,
        "meta_mean_motion_dot": -0.01517048,
        "meta_mean_motion_ddot": 0,
        "tle_line1": "1 66983U 25288AA  25352.25003472 -.01517048  00000+0 -62678-2 0  9995",
        "tle_line2": "2 66983  43.0015 133.3364 0001559 270.9315 242.8879 15.87472647  2718"
      },
      "geometry": {
        "type": "Point",
        "coordinates": [
          -115.99741178837832,
          40.633840527351836
        ]
      }
    },
    {
      "type": "Feature",
      "properties": {
        "norad_id": 66984,
        "name": "STARLINK-35591",
        "group": "last-30-days",
        "lat": 41.19308426929328,
        "lon": -118.85801717267766,
        "alt_km": 307.5690874864531,
        "timestamp": "2025-12-18T14:52:06.783680+00:00",
        "meta_object_name": "STARLINK-35591",
        "meta_object_id": "2025-288AB",
        "meta_epoch": "2025-12-18T06:00:02.999808",
        "meta_mean_motion": 15.87452139,
        "meta_eccentricity": 0.00015556,
        "meta_inclination": 43.0015,
        "meta_ra_of_asc_node": 133.3415,
        "meta_arg_of_pericenter": 268.2609,
        "meta_mean_anomaly": 243.346,
        "meta_ephemeris_type": 0,
        "meta_classification_type": "U",
        "meta_norad_cat_id": 66984,
        "meta_element_set_no": 999,
        "meta_rev_at_epoch": 271,
        "meta_bstar": -0.0062229533,
        "meta_mean_motion_dot": -0.01506094,
        "meta_mean_motion_ddot": 0,
        "tle_line1": "1 66984U 25288AB  25352.25003472 -.01506094  00000+0 -62230-2 0  9999",
        "tle_line2": "2 66984  43.0015 133.3415 0001555 268.2609 243.3460 15.87452139  2714"
      },
      "geometry": {
        "type": "Point",
        "coordinates": [
          -118.85801717267766,
          41.19308426929328
        ]
      }
    },
    {
      "type": "Feature",
      "properties": {
        "norad_id": 66985,
        "name": "STARLINK-36103",
        "group": "last-30-days",
        "lat": 39.962967182659504,
        "lon": -113.01217501988197,
        "alt_km": 307.6684626461483,
        "timestamp": "2025-12-18T14:52:06.783690+00:00",
        "meta_object_name": "STARLINK-36103",
        "meta_object_id": "2025-288AC",
        "meta_epoch": "2025-12-18T06:00:02.999808",
        "meta_mean_motion": 15.87484919,
        "meta_eccentricity": 0.00014872,
        "meta_inclination": 43.0015,
        "meta_ra_of_asc_node": 133.3303,
        "meta_arg_of_pericenter": 272.8352,
        "meta_mean_anomaly": 243.345,
        "meta_ephemeris_type": 0,
        "meta_classification_type": "U",
        "meta_norad_cat_id": 66985,
        "meta_element_set_no": 999,
        "meta_rev_at_epoch": 271,
        "meta_bstar": -0.0062842243,
        "meta_mean_motion_dot": -0.01521332,
        "meta_mean_motion_ddot": 0,
        "tle_line1": "1 66985U 25288AC  25352.25003472 -.01521332  00000+0 -62842-2 0  9991",
        "tle_line2": "2 66985  43.0015 133.3303 0001487 272.8352 243.3450 15.87484919  2711"
      },
      "geometry": {
        "type": "Point",
        "coordinates": [
          -113.01217501988197,
          39.962967182659504
        ]
      }
    },
    {
      "type": "Feature",
      "properties": {
        "norad_id": 66986,
        "name": "STARLINK-36135",
        "group": "last-30-days",
        "lat": 39.21590987816816,
        "lon": -110.08672497233492,
        "alt_km": 307.77233648024503,
        "timestamp": "2025-12-18T14:52:06.783700+00:00",
        "meta_object_name": "STARLINK-36135",
        "meta_object_id": "2025-288AD",
        "meta_epoch": "2025-12-18T06:00:02.999808",
        "meta_mean_motion": 15.87497566,
        "meta_eccentricity": 0.00015306,
        "meta_inclination": 43.0012,
        "meta_ra_of_asc_node": 133.3237,
        "meta_arg_of_pericenter": 270.9726,
        "meta_mean_anomaly": 247.5733,
        "meta_ephemeris_type": 0,
        "meta_classification_type": "U",
        "meta_norad_cat_id": 66986,
        "meta_element_set_no": 999,
        "meta_rev_at_epoch": 271,
        "meta_bstar": -0.0063138568,
        "meta_mean_motion_dot": -0.01528548,
        "meta_mean_motion_ddot": 0,
        "tle_line1": "1 66986U 25288AD  25352.25003472 -.01528548  00000+0 -63139-2 0  9998",
        "tle_line2": "2 66986  43.0012 133.3237 0001530 270.9726 247.5733 15.87497566  2710"
      },
      "geometry": {
        "type": "Point",
        "coordinates": [
          -110.08672497233492,
          39.21590987816816
        ]
      }
    },
    {
      "type": "Feature",
      "properties": {
        "norad_id": 66987,
        "name": "STARLINK-36147",
        "group": "last-30-days",
        "lat": 38.46211421735475,
        "lon": -107.4385279411884,
        "alt_km": 307.834702227723,
        "timestamp": "2025-12-18T14:52:06.783710+00:00",
        "meta_object_name": "STARLINK-36147",
        "meta_object_id": "2025-288AE",
        "meta_epoch": "2025-12-18T06:00:02.999808",
        "meta_mean_motion": 15.87516993,
        "meta_eccentricity": 0.00014978,
        "meta_inclination": 43.0018,
        "meta_ra_of_asc_node": 133.3188,
        "meta_arg_of_pericenter": 273.5094,
        "meta_mean_anomaly": 247.2103,
        "meta_ephemeris_type": 0,
        "meta_classification_type": "U",
        "meta_norad_cat_id": 66987,
        "meta_element_set_no": 999,
        "meta_rev_at_epoch": 271,
        "meta_bstar": -0.0063331704,
        "meta_mean_motion_dot": -0.01533959,
        "meta_mean_motion_ddot": 0,
        "tle_line1": "1 66987U 25288AE  25352.25003472 -.01533959  00000+0 -63332-2 0  9996",
        "tle_line2": "2 66987  43.0018 133.3188 0001497 273.5094 247.2103 15.87516993  2715"
      },
      "geometry": {
        "type": "Point",
        "coordinates": [
          -107.4385279411884,
          38.46211421735475
        ]
      }
    },
    {
      "type": "Feature",
      "properties": {
        "norad_id": 66988,
        "name": "YAOGAN-47",
        "group": "last-30-days",
        "lat": 4.403447838825797,
        "lon": -121.66448177841626,
        "alt_km": 498.9557459505186,
        "timestamp": "2025-12-18T14:52:06.783722+00:00",
        "meta_object_name": "YAOGAN-47",
        "meta_object_id": "2025-289A",
        "meta_epoch": "2025-12-15T02:32:19.481856",
        "meta_mean_motion": 15.23184629,
        "meta_eccentricity": 7.87e-05,
        "meta_inclination": 97.5271,
        "meta_ra_of_asc_node": 54.2297,
        "meta_arg_of_pericenter": 67.3408,
        "meta_mean_anomaly": 292.7912,
        "meta_ephemeris_type": 0,
        "meta_classification_type": "U",
        "meta_norad_cat_id": 66988,
        "meta_element_set_no": 999,
        "meta_rev_at_epoch": 90,
        "meta_bstar": 0.00011849353,
        "meta_mean_motion_dot": 2.729e-05,
        "meta_mean_motion_ddot": 0,
        "tle_line1": "1 66988U 25289A   25349.10578104  .00002729  00000+0  11849-3 0  9997",
        "tle_line2": "2 66988  97.5271  54.2297 0000787  67.3408 292.7912 15.23184629   901"
      },
      "geometry": {
        "type": "Point",
        "coordinates": [
          -121.66448177841626,
          4.403447838825797
        ]
      }
    },
    {
      "type": "Feature",
      "properties": {
        "norad_id": 66989,
        "name": "CZ-4B R/B",
        "group": "last-30-days",
        "lat": -29.65302198771528,
        "lon": -125.92540849244084,
        "alt_km": 431.8048248460418,
        "timestamp": "2025-12-18T14:52:06.783738+00:00",
        "meta_object_name": "CZ-4B R/B",
        "meta_object_id": "2025-289B",
        "meta_epoch": "2025-12-18T06:18:50.459328",
        "meta_mean_motion": 15.68563917,
        "meta_eccentricity": 0.01448012,
        "meta_inclination": 97.5259,
        "meta_ra_of_asc_node": 58.0084,
        "meta_arg_of_pericenter": 342.0378,
        "meta_mean_anomaly": 17.5793,
        "meta_ephemeris_type": 0,
        "meta_classification_type": "U",
        "meta_norad_cat_id": 66989,
        "meta_element_set_no": 999,
        "meta_rev_at_epoch": 143,
        "meta_bstar": 0.00057944105,
        "meta_mean_motion_dot": 0.00119503,
        "meta_mean_motion_ddot": 6.32141e-06,
        "tle_line1": "1 66989U 25289B   25352.26308402  .00119503  63214-5  57944-3 0  9998",
        "tle_line2": "2 66989  97.5259  58.0084 0144801 342.0378  17.5793 15.68563917  1438"
      },
      "geometry": {
        "type": "Point",
        "coordinates": [
          -125.92540849244084,
          -29.65302198771528
        ]
      }
    }
  ]
}